C/2018 A3 (ATLAS),e,139.5998,194.3488,86.4936,344.6362,0.0001541,0.99044743,0.0000,01/08.7432/2019,2000,g  8.5,4.0
# From MPC109147
P/2018 A5 (PANSTARRS),e,23.6245,87.7837,359.5459,5.624438,0.0738900,0.52449474,201.6470,03/20.0/2025,2000,g 15.0,4.0
# From MPEC 2024-JU4
C/2018 A6 (Gibbs),e,77.1511,340.4500,264.2768,14.99870,0.0169677,0.79881968,35.2885,03/20.0/2025,2000,g  9.0,4.0
# From MPC114601
P/2018 C1 (Lemmon-Read),e,5.1023,270.2124,235.7848,5.649618,0.0733965,0.53262814,189.4238,03/20.0/2025,2000,g 13.5,4.0
# From MPEC 2022-M88
C/2018 DO4 (Lemmon),e,160.4468,251.3908,176.4082,25.51020,0.0076495,0.90508865,15.6202,03/20.0/2025,2000,g 11.0,4.0
# From MPEC 2021-R75
C/2018 F1 (Grauer),e,46.1635,177.3156,71.4424,218.0233,0.0003062,0.98627495,0.0000,12/10.1542/2018,2000,g 11.5,4.0
# From MPEC 2023-A50
C/2018 F4 (PANSTARRS),e,78.1272,26.5335,263.1988,1811,0.0000128,0.99809578,0.0000,12/01.0017/2019,2000,g 11.0,6.0
# From MPEC 2021-Y10
C/2018 F4-A,e,78.1274,26.5336,263.1956,1762,0.0000133,0.99804282,0.0000,11/30.9898/2019,2000,g 11.0,6.0
# From MPEC 2023-D41
C/2018 F4-B,e,78.1283,26.5331,263.1814,1846,0.0000124,0.99813158,0.0000,11/30.9266/2019,2000,g 11.0,6.0
# From MPC114602
P/2018 H2 (PANSTARRS),e,7.4185,67.9825,119.2406,4.406743,0.1065436,0.53994533,282.4010,03/20.0/2025,2000,g 16.6,2.0
# From MPEC 2021-R75
C/2018 KJ3 (Lemmon),e,136.6207,91.6951,217.5435,713.7098,0.0000517,0.99493109,0.0000,09/08.9528/2019,2000,g 12.2,2.0
# From MPC114602
P/2018 L1 (PANSTARRS),e,10.5785,268.5844,17.9543,3.657755,0.1408906,0.48128343,327.4761,03/20.0/2025,2000,g 15.0,4.0
# From MPEC 2021-P47
C/2018 L2 (ATLAS),e,67.2084,242.9864,56.3481,237.2914,0.0002696,0.99274553,0.0000,11/29.7363/2018,2000,g 10.0,4.0
# From MPC114603
P/2018 L4 (PANSTARRS),e,26.5920,145.2241,140.5119,4.948556,0.0895336,0.65822151,217.4639,03/20.0/2025,2000,g 17.5,4.0
# From MPEC 2022-YN2
C/2018 N2 (ASASSN),h,11/12.0814/2019,77.5070,24.5208,25.3190,1.001985,3.135039,2000,6.0,4.0
# From MPC114603
P/2018 P4 (PANSTARRS),e,23.0812,353.1571,8.5169,6.695336,0.0568913,0.44917943,132.2482,03/20.0/2025,2000,g 12.0,4.0
# From MPEC 2021-P47
C/2018 P5 (PANSTARRS),e,7.2463,216.2655,132.0416,12.84704,0.0214042,0.64172716,47.3873,03/20.0/2025,2000,g 11.0,4.0
# From MPC118841
C/2018 R3 (Lemmon),e,69.6903,324.3817,112.7897,1771,0.0000132,0.99927512,0.0000,06/08.0660/2019,2000,g  9.5,4.0
# From MPC114603
C/2018 R5 (Lemmon),e,103.6905,171.2592,178.2742,22.98268,0.0089455,0.84169464,20.2189,03/20.0/2025,2000,g 11.5,4.0
# From MPEC 2022-QC6
C/2018 S2 (TESS),e,64.1102,85.1070,290.9415,14.37039,0.0180926,0.61799085,42.0898,03/20.0/2025,2000,g  7.5,4.0
# From MPEC 2024-JU4
C/2018 U1 (Lemmon),h,11/02.2625/2021,108.3257,75.5157,180.3666,1.000298,4.986738,2000,5.0,4.0
# From MPC114604
C/2018 V1 (Machholz-Fujikawa-Iwamoto),h,12/03.9567/2018,144.1961,129.5754,89.5588,1.000456,0.391099,2000,12.0,4.0
# From MPC115884
C/2018 V2 (ATLAS),e,159.1624,357.2070,319.2732,25.23966,0.0077728,0.90124279,17.9228,03/20.0/2025,2000,g 15.0,4.0
# From MPEC 2025-A40
P/2018 VN2 (Leonard),e,18.2578,226.4394,138.9271,4.061208,0.1204263,0.47819506,298.1342,03/20.0/2025,2000,g 15.0,4.0
# From MPEC 2025-A40
A/2018 V3,e,164.9163,308.8141,3.5839,127.5858,0.0006839,0.98956877,0.0000,09/10.4511/2019,2000,g 15.7,2.0
# From MPEC 2022-M21
C/2018 V4 (Africano),e,69.0445,78.2442,0.0845,215.0951,0.0003124,0.98511082,0.0000,03/02.3806/2019,2000,g 12.5,4.0
# From MPEC 2021-P47
P/2018 V5 (Trujillo-Sheppard),e,10.5788,171.2975,260.8631,8.979717,0.0366277,0.47585100,86.3258,03/20.0/2025,2000,g 12.5,4.0
# From MPEC 2021-P47
C/2018 W1 (Catalina),e,83.4057,233.6414,251.1699,21.73796,0.0097247,0.93780301,20.7842,03/20.0/2025,2000,g 15.5,2.0
# From MPEC 2021-P47
C/2018 W2 (Africano),h,09/05.6450/2019,116.5484,181.9622,158.2312,1.000933,1.465668,2000,9.5,4.0
# From MPEC 2023-M14
A/2018 W3,e,104.8395,251.6903,313.8773,706.0559,0.0000525,0.99393388,0.0000,04/13.1579/2021,2000,g 10.7,2.0
# From MPC119996
C/2018 X2 (Fitzsimmons),e,23.1040,340.6504,161.9930,140.4924,0.0005919,0.98497235,0.0000,07/09.6712/2019,2000,g 12.0,4.0
# From MPC114604
C/2018 X3 (PANSTARRS),e,43.4275,78.7951,359.8552,12.40910,0.0225472,0.78292740,51.1685,03/20.0/2025,2000,g 14.5,4.0
# From MPEC 2024-A43
C/2018 Y1 (Iwamoto),e,160.4768,147.3471,357.8629,126.3237,0.0006942,0.98977096,0.0000,02/03.5447/2019,2000,g 11.5,4.0
# From MPC114605
P/2018 Y2 (Africano),e,11.6947,297.1203,162.3718,7.456616,0.0484051,0.48003238,109.7130,03/20.0/2025,2000,g 11.5,4.0
# From MPC114605
P/2019 A1 (PANSTARRS),e,13.7706,312.2128,150.7779,5.112607,0.0852590,0.57027521,200.2410,03/20.0/2025,2000,g 16.0,4.0
# From MPEC 2021-P47
P/2019 A2 (ATLAS),e,14.8724,139.3707,323.9434,5.710464,0.0722266,0.38326625,166.7020,03/20.0/2025,2000,g 10.5,4.0
# From MPEC 2022-M21
P/2019 A3 (PANSTARRS),e,15.3588,31.3061,325.6930,3.147080,0.1765397,0.26727897,67.4668,03/20.0/2025,2000,g 16.0,4.0
# From MPEC 2022-L66
P/2019 A4 (PANSTARRS),e,13.3056,119.3539,343.2165,2.614539,0.2331370,0.08741203,174.0157,03/20.0/2025,2000,g 15.0,4.0
# From MPEC 2021-P47
C/2019 A5 (PANSTARRS),e,67.5502,146.5211,355.8112,21.49748,0.0098883,0.70639227,20.8953,03/20.0/2025,2000,g  9.5,4.0
# From MPC114605
P/2019 A6 (Lemmon-PANSTARRS),e,33.2973,280.1742,156.2452,5.356749,0.0794972,0.64039749,190.0904,03/20.0/2025,2000,g 16.0,4.0
# From MPEC 2025-EB9
P/2019 A8 (PANSTARRS),e,2.3015,111.5299,46.6818,3.415725,0.1561276,0.37589946,358.1375,03/20.0/2025,2000,g 16.0,4.0
# From MPC118842
C/2019 A9 (PANSTARRS),e,84.3960,278.4690,237.8827,39.28520,0.0040028,0.96367346,8.2576,03/20.0/2025,2000,g 15.0,4.0
# From MPEC 2022-L66
C/2019 B1 (Africano),e,123.4874,290.2384,174.8157,139.3386,0.0005992,0.98849774,0.0000,03/18.2727/2019,2000,g 16.0,4.0
# From MPC115885
P/2019 B2 (Groeller),e,16.9546,175.6695,0.6317,3.927122,0.1266463,0.35775963,270.5273,03/20.0/2025,2000,g 14.5,4.0
# From MPEC 2024-JU4
C/2019 B3 (PANSTARRS),e,66.5957,358.4046,263.9920,3840,0.0000041,0.99822158,0.0000,01/19.6417/2021,2000,g  5.5,4.0
# From MPEC 2021-P47
C/2019 C1 (ATLAS),e,36.0409,212.3749,319.0115,679.6039,0.0000556,0.99033612,0.0000,05/04.4241/2020,2000,g 10.0,4.0
# From MPEC 2022-O08
C/2019 D1 (Flewelling),e,34.0053,231.6590,70.7264,137.1196,0.0006138,0.98838920,0.0000,05/09.0277/2019,2000,g 13.0,4.0
# From MPEC 2025-CE3
C/2019 E3 (ATLAS),e,84.3120,347.2001,280.7168,5209,0.0000026,0.99802027,0.0000,11/15.5780/2023,2000,g  2.5,4.0
# From MPEC 2024-GJ3
C/2019 F1 (ATLAS-Africano),h,06/21.3037/2021,54.2466,38.6638,251.3128,1.000454,3.608623,2000,5.5,4.0
# From MPEC 2025-A40
C/2019 F2 (ATLAS),e,19.3296,175.3537,11.6129,16.55806,0.0146282,0.86472178,29.5543,03/20.0/2025,2000,g 12.0,4.0
# From MPEC 2024-E01
C/2019 G2 (PANSTARRS),e,159.2477,208.2249,82.7580,400.7620,0.0001228,0.99424956,0.0000,12/06.6155/2019,2000,g 15.0,4.0
# From MPEC 2022-VC5
A/2019 G3,e,156.8069,49.9003,161.7473,17.12347,0.0139097,0.83433072,31.9653,03/20.0/2025,2000,g 17.1,2.0
# From MPC114607
P/2019 GG21 (PANSTARRS),e,6.0842,340.5646,208.5875,7.468463,0.0482900,0.47167859,103.4049,03/20.0/2025,2000,g 12.0,4.0
# From MPEC 2022-M21
C/2019 H1 (NEOWISE),e,104.3571,269.3122,19.2512,229.8870,0.0002828,0.99199486,0.0000,04/27.0562/2019,2000,g 15.5,4.0
# From MPEC 2023-A50
C/2019 J1 (Lemmon),e,24.5226,98.2349,167.5858,66.62423,0.0018124,0.96273456,3.9420,03/20.0/2025,2000,g 12.0,4.0
# From MPEC 2021-R75
C/2019 J2 (Palomar),e,105.2223,25.4810,98.5626,160.3458,0.0004854,0.98930504,0.0000,07/21.1074/2019,2000,g 13.0,4.0
# From MPC117071
C/2019 J3 (ATLAS),e,131.2940,270.6554,16.5036,135698,0.0000000,0.99998259,0.0000,08/02.0830/2019,2000,g 13.5,4.0
# From MPEC 2022-M21
C/2019 JU6 (ATLAS),e,148.3052,21.7021,94.7996,23022,0.0000003,0.99991171,0.0000,06/02.9008/2019,2000,g 14.5,4.0
# From MPEC 2022-O08
C/2019 K1 (ATLAS),e,87.0144,73.3080,265.7754,3142,0.0000056,0.99935690,0.0000,02/11.1160/2020,2000,g 10.0,4.0
# From MPC119997
C/2019 K4 (Ye),e,105.2899,180.2785,140.0159,1619,0.0000151,0.99859438,0.0000,06/15.2656/2019,2000,g 12.5,4.0
# From MPEC 2021-P47
C/2019 K5 (Young),e,15.2959,177.2637,175.1486,168.8590,0.0004492,0.98783562,0.0000,06/21.5741/2019,2000,g 13.0,4.0
# From MPEC 2021-P47
C/2019 K6 (PANSTARRS),e,132.3865,42.9856,187.4440,962.7609,0.0000330,0.99593095,0.0000,05/18.7556/2020,2000,g 11.5,4.0
# From MPEC 2024-GJ3
C/2019 K7 (Smith),h,06/17.2601/2020,103.4822,308.0314,27.3683,1.000483,4.474992,2000,6.0,4.0
# From MPEC 2021-R75
C/2019 K8 (ATLAS),e,93.0533,290.9922,85.3689,1744,0.0000135,0.99816622,0.0000,07/20.4309/2019,2000,g 11.5,4.0
# From MPEC 2023-A50
C/2019 L1 (PANSTARRS),e,9.9735,254.4267,50.0234,9.820764,0.0320248,0.70418557,65.6973,03/20.0/2025,2000,g 13.5,4.0
# From MPC115886
C/2019 L2 (NEOWISE),e,152.1585,12.5773,18.8550,25.14697,0.0078158,0.93549875,17.0178,03/20.0/2025,2000,g 16.0,4.0
# From MPEC 2024-GJ3
P/2019 LD2 (ATLAS),e,11.6026,178.9430,116.7252,5.175130,0.0837186,0.13007533,156.7605,03/20.0/2025,2000,g  8.5,4.0
# From MPEC 2025-A40
C/2019 L3 (ATLAS),h,01/10.0796/2022,48.3454,290.7211,171.7325,1.003046,3.557739,2000,4.5,4.0
# From MPEC 2024-YC7
P/2019 LM4 (Palomar),e,36.4178,72.8935,68.2034,5.702750,0.0723732,0.58604175,152.0066,03/20.0/2025,2000,g  9.5,4.0
# From MPC118095
C/2019 LB7 (Kleyna),e,164.2811,3.9858,336.7614,35.00623,0.0047587,0.92871124,10.3961,03/20.0/2025,2000,g 17.0,4.0
# From MPC118095
C/2019 M3 (ATLAS),e,99.6360,155.0363,87.9353,4863,0.0000029,0.99950134,0.0000,12/31.3465/2018,2000,g 12.2,4.0
# From MPEC 2023-JA2
C/2019 M4 (TESS),h,09/10.0005/2019,65.6861,52.6448,260.3483,1.000731,9.191121,2000,5.0,4.0
# From MPEC 2023-C45
C/2019 N1 (ATLAS),e,82.5113,13.5233,193.3471,988.3245,0.0000317,0.99827665,0.0000,11/30.5806/2020,2000,g  7.5,4.0
# From MPEC 2023-CD8
A/2019 N2,e,89.3230,276.2213,347.0867,1183,0.0000242,0.99835936,0.0000,08/22.4898/2019,2000,g 12.5,2.0
# From MPEC 2022-A21
C/2019 NJ3 (Lemmon),h,10/22.4203/2020,99.3446,142.4914,246.8775,1.001583,4.362913,2000,9.0,4.0
# From MPEC 2024-R10
